{"type": "FeatureCollection", "features": [ {"type": "Feature", "properties": {"norad_id": 43262, "name": "GAOFEN-1 04", "group": "resource", "lat": 26.872612928001267, "lon": -137.43002710693838, "alt_km": 639.6221723507642, "timestamp": "2025-12-06T14:35:36.785086+00:00", "meta": {"OBJECT_NAME": "GAOFEN-1 04", "OBJECT_ID": "2018-031D", "EPOCH": "2025-12-06T07:23:52.998720", "MEAN_MOTION": 14.7643005, "ECCENTRICITY": 0.00012465, "INCLINATION": 98.0815, "RA_OF_ASC_NODE": 38.1412, "ARG_OF_PERICENTER": 62.3123, "MEAN_ANOMALY": 297.8213, "EPHEMERIS_TYPE": 0, "CLASSIFICATION_TYPE": "U", "NORAD_CAT_ID": 43262, "ELEMENT_SET_NO": 999, "REV_AT_EPOCH": 41422, "BSTAR": 0.00030992811, "MEAN_MOTION_DOT": 2.104e-05, "MEAN_MOTION_DDOT": 0}, "tle": {"line1": "1 43262U 18031D   25340.30825230  .00002104  00000+0  30993-3 0  9990", "line2": "2 43262  98.0815  38.1412 0001246  62.3123 297.8213 14.76430050414224"}}, "geometry": {"type": "Point", "coordinates": [-137.43002710693838, 26.872612928001267]}}, {"type": "Feature", "properties": {"norad_id": 43437, "name": "SENTINEL-3B", "group": "resource", "lat": -25.149429283842323, "lon": 49.96826238864651, "alt_km": 808.944089658351, "timestamp": "2025-12-06T14:35:36.785096+00:00", "meta": {"OBJECT_NAME": "SENTINEL-3B", "OBJECT_ID": "2018-039A", "EPOCH": "2025-12-06T04:36:50.184000", "MEAN_MOTION": 14.26738958, "ECCENTRICITY": 0.00015022, "INCLINATION": 98.6274, "RA_OF_ASC_NODE": 45.471, "ARG_OF_PERICENTER": 109.1591, "MEAN_ANOMALY": 250.9753, "EPHEMERIS_TYPE": 0, "CLASSIFICATION_TYPE": "U", "NORAD_CAT_ID": 43437, "ELEMENT_SET_NO": 999, "REV_AT_EPOCH": 39660, "BSTAR": 0.00014242399, "MEAN_MOTION_DOT": 3.01e-06, "MEAN_MOTION_DDOT": 0}, "tle": {"line1": "1 43437U 18039A   25340.19224750  .00000301  00000+0  14242-3 0  9995", "line2": "2 43437  98.6274  45.4710 0001502 109.1591 250.9753 14.26738958396602"}}, "geometry": {"type": "Point", "coordinates": [49.96826238864651, -25.149429283842323]}}, {"type": "Feature", "properties": {"norad_id": 43461, "name": "GAOFEN-5 01", "group": "resource", "lat": -57.36159234756798, "lon": -43.140655616043, "alt_km": 698.4608713471489, "timestamp": "2025-12-06T14:35:36.785106+00:00", "meta": {"OBJECT_NAME": "GAOFEN-5 01", "OBJECT_ID": "2018-043A", "EPOCH": "2025-12-06T03:20:59.179776", "MEAN_MOTION": 14.60398256, "ECCENTRICITY": 0.00013889, "INCLINATION": 98.4316, "RA_OF_ASC_NODE": 302.9919, "ARG_OF_PERICENTER": 2.5299, "MEAN_ANOMALY": 357.5907, "EPHEMERIS_TYPE": 0, "CLASSIFICATION_TYPE": "U", "NORAD_CAT_ID": 43461, "ELEMENT_SET_NO": 999, "REV_AT_EPOCH": 40351, "BSTAR": 0.00020465677, "MEAN_MOTION_DOT": 9.42e-06, "MEAN_MOTION_DDOT": 0}, "tle": {"line1": "1 43461U 18043A   25340.13957384  .00000942  00000+0  20466-3 0  9993", "line2": "2 43461  98.4316 302.9919 0001388   2.5299 357.5907 14.60398256403514"}}, "geometry": {"type": "Point", "coordinates": [-43.140655616043, -57.36159234756798]}}, {"type": "Feature", "properties": {"norad_id": 43484, "name": "GAOFEN-6", "group": "resource", "lat": -57.845849688794125, "lon": 57.68231142696055, "alt_km": 654.5391574713803, "timestamp": "2025-12-06T14:35:36.785133+00:00", "meta": {"OBJECT_NAME": "GAOFEN-6", "OBJECT_ID": "2018-048A", "EPOCH": "2025-12-06T06:43:38.149824", "MEAN_MOTION": 14.76548813, "ECCENTRICITY": 0.00133136, "INCLINATION": 97.804, "RA_OF_ASC_NODE": 44.7639, "ARG_OF_PERICENTER": 82.7913, "MEAN_ANOMALY": 277.4811, "EPHEMERIS_TYPE": 0, "CLASSIFICATION_TYPE": "U", "NORAD_CAT_ID": 43484, "ELEMENT_SET_NO": 999, "REV_AT_EPOCH": 40492, "BSTAR": 0.00025570106, "MEAN_MOTION_DOT": 1.736e-05, "MEAN_MOTION_DDOT": 0}, "tle": {"line1": "1 43484U 18048A   25340.28030266  .00001736  00000+0  25570-3 0  9993", "line2": "2 43484  97.8040  44.7639 0013313  82.7913 277.4811 14.76548813404923"}}, "geometry": {"type": "Point", "coordinates": [57.68231142696055, -57.845849688794125]}}, {"type": "Feature", "properties": {"norad_id": 43585, "name": "GAOFEN-11 01", "group": "resource", "lat": -49.89284653343588, "lon": 52.174338815280976, "alt_km": 423.9656562605005, "timestamp": "2025-12-06T14:35:36.785147+00:00", "meta": {"OBJECT_NAME": "GAOFEN-11 01", "OBJECT_ID": "2018-063A", "EPOCH": "2025-12-06T07:03:30.559680", "MEAN_MOTION": 15.48955036, "ECCENTRICITY": 0.00047197, "INCLINATION": 97.1566, "RA_OF_ASC_NODE": 43.2839, "ARG_OF_PERICENTER": 342.1973, "MEAN_ANOMALY": 17.9112, "EPHEMERIS_TYPE": 0, "CLASSIFICATION_TYPE": "U", "NORAD_CAT_ID": 43585, "ELEMENT_SET_NO": 999, "REV_AT_EPOCH": 41042, "BSTAR": 0.00042890942, "MEAN_MOTION_DOT": 0.00023125, "MEAN_MOTION_DDOT": 0}, "tle": {"line1": "1 43585U 18063A   25340.29410370  .00023125  00000+0  42891-3 0  9992", "line2": "2 43585  97.1566  43.2839 0004719 342.1973  17.9112 15.48955036410428"}}, "geometry": {"type": "Point", "coordinates": [52.174338815280976, -49.89284653343588]}}, {"type": "Feature", "properties": {"norad_id": 43613, "name": "ICESAT-2", "group": "resource", "lat": 33.47779378970166, "lon": 60.4096707250262, "alt_km": 478.2517062527004, "timestamp": "2025-12-06T14:35:36.785158+00:00", "meta": {"OBJECT_NAME": "ICESAT-2", "OBJECT_ID": "2018-070A", "EPOCH": "2025-12-06T06:05:48.984288", "MEAN_MOTION": 15.28157312, "ECCENTRICITY": 0.0001693, "INCLINATION": 92.0053, "RA_OF_ASC_NODE": 238.9864, "ARG_OF_PERICENTER": 162.8378, "MEAN_ANOMALY": 197.2929, "EPHEMERIS_TYPE": 0, "CLASSIFICATION_TYPE": "U", "NORAD_CAT_ID": 43613, "ELEMENT_SET_NO": 999, "REV_AT_EPOCH": 40299, "BSTAR": 0.00078200612, "MEAN_MOTION_DOT": 0.00021484, "MEAN_MOTION_DDOT": 0}, "tle": {"line1": "1 43613U 18070A   25340.25403917  .00021484  00000+0  78201-3 0  9997", "line2": "2 43613  92.0053 238.9864 0001693 162.8378 197.2929 15.28157312402990"}}, "geometry": {"type": "Point", "coordinates": [60.4096707250262, 33.47779378970166]}}, {"type": "Feature", "properties": {"norad_id": 43719, "name": "HYSIS", "group": "resource", "lat": -67.70941545405594, "lon": 63.70740469336149, "alt_km": 641.6749961959285, "timestamp": "2025-12-06T14:35:36.785169+00:00", "meta": {"OBJECT_NAME": "HYSIS", "OBJECT_ID": "2018-096A", "EPOCH": "2025-12-06T06:47:06.633888", "MEAN_MOTION": 14.78618316, "ECCENTRICITY": 0.00015732, "INCLINATION": 98.0105, "RA_OF_ASC_NODE": 43.2921, "ARG_OF_PERICENTER": 63.7277, "MEAN_ANOMALY": 296.4096, "EPHEMERIS_TYPE": 0, "CLASSIFICATION_TYPE": "U", "NORAD_CAT_ID": 43719, "ELEMENT_SET_NO": 999, "REV_AT_EPOCH": 37891, "BSTAR": 0.00038496159, "MEAN_MOTION_DOT": 2.767e-05, "MEAN_MOTION_DDOT": 0}, "tle": {"line1": "1 43719U 18096A   25340.28271567  .00002767  00000+0  38496-3 0  9994", "line2": "2 43719  98.0105  43.2921 0001573  63.7277 296.4096 14.78618316378917"}}, "geometry": {"type": "Point", "coordinates": [63.70740469336149, -67.70941545405594]}}, {"type": "Feature", "properties": {"norad_id": 43783, "name": "KAZSTSAT", "group": "resource", "lat": 69.65863020719344, "lon": -4.627473612718612, "alt_km": 561.2266365104888, "timestamp": "2025-12-06T14:35:36.785180+00:00", "meta": {"OBJECT_NAME": "KAZSTSAT", "OBJECT_ID": "2018-099AB", "EPOCH": "2025-12-06T07:52:16.758336", "MEAN_MOTION": 14.99321431, "ECCENTRICITY": 0.00062836, "INCLINATION": 97.4553, "RA_OF_ASC_NODE": 15.7886, "ARG_OF_PERICENTER": 355.5156, "MEAN_ANOMALY": 4.601, "EPHEMERIS_TYPE": 0, "CLASSIFICATION_TYPE": "U", "NORAD_CAT_ID": 43783, "ELEMENT_SET_NO": 999, "REV_AT_EPOCH": 38240, "BSTAR": 0.00028933307, "MEAN_MOTION_DOT": 3.48e-05, "MEAN_MOTION_DDOT": 0}, "tle": {"line1": "1 43783U 18099AB  25340.32797174  .00003480  00000+0  28933-3 0  9998", "line2": "2 43783  97.4553  15.7886 0006283 355.5156   4.6010 14.99321431382409"}}, "geometry": {"type": "Point", "coordinates": [-4.627473612718612, 69.65863020719344]}}, {"type": "Feature", "properties": {"norad_id": 43831, "name": "SAUDISAT 5A", "group": "resource", "lat": -81.12454657740408, "lon": 165.32583261700302, "alt_km": 504.5399492353481, "timestamp": "2025-12-06T14:35:36.785190+00:00", "meta": {"OBJECT_NAME": "SAUDISAT 5A", "OBJECT_ID": "2018-102A", "EPOCH": "2025-12-06T07:08:20.924160", "MEAN_MOTION": 15.25538435, "ECCENTRICITY": 0.00118542, "INCLINATION": 97.3362, "RA_OF_ASC_NODE": 40.6136, "ARG_OF_PERICENTER": 95.9674, "MEAN_ANOMALY": 264.2916, "EPHEMERIS_TYPE": 0, "CLASSIFICATION_TYPE": "U", "NORAD_CAT_ID": 43831, "ELEMENT_SET_NO": 999, "REV_AT_EPOCH": 38624, "BSTAR": 0.00041872001, "MEAN_MOTION_DOT": 0.00010573, "MEAN_MOTION_DDOT": 0}, "tle": {"line1": "1 43831U 18102A   25340.29746440  .00010573  00000+0  41872-3 0  9991", "line2": "2 43831  97.3362  40.6136 0011854  95.9674 264.2916 15.25538435386244"}}, "geometry": {"type": "Point", "coordinates": [165.32583261700302, -81.12454657740408]}}, {"type": "Feature", "properties": {"norad_id": 43833, "name": "SAUDISAT 5B", "group": "resource", "lat": -50.18909694090113, "lon": 52.54940050450523, "alt_km": 502.3354214884266, "timestamp": "2025-12-06T14:35:36.785200+00:00", "meta": {"OBJECT_NAME": "SAUDISAT 5B", "OBJECT_ID": "2018-102C", "EPOCH": "2025-12-06T06:56:47.918400", "MEAN_MOTION": 15.25893459, "ECCENTRICITY": 0.00125253, "INCLINATION": 97.3456, "RA_OF_ASC_NODE": 43.3327, "ARG_OF_PERICENTER": 98.437, "MEAN_ANOMALY": 261.8289, "EPHEMERIS_TYPE": 0, "CLASSIFICATION_TYPE": "U", "NORAD_CAT_ID": 43833, "ELEMENT_SET_NO": 999, "REV_AT_EPOCH": 38635, "BSTAR": 0.00038851129, "MEAN_MOTION_DOT": 9.912e-05, "MEAN_MOTION_DDOT": 0}, "tle": {"line1": "1 43833U 18102C   25340.28944350  .00009912  00000+0  38851-3 0  9990", "line2": "2 43833  97.3456  43.3327 0012525  98.4370 261.8289 15.25893459386357"}}, "geometry": {"type": "Point", "coordinates": [52.54940050450523, -50.18909694090113]}}]}